COSMOS 2251 DEB         
1 34991U 93036AFP 17345.73264196  .00001585  00000-0  34838-3 0  9993
2 34991  74.0450 117.5603 0012931 272.3397  87.6287 14.58330899456980
